start=new Date('2022-02-06T00:00:00.000Z').valueOf();
sats=[{"OBJECT_TYPE":"PAYLOAD","OBJECT_ID":"2021-044T","DECAY_DATE":null,"PERIAPSIS":"546.176","MEAN_MOTION":"15.06406637","ELEMENT_SET_NO":"999","GP_ID":"195373160","EPOCH":"2022-02-05T08:03:52.484832","CLASSIFICATION_TYPE":"U","MEAN_ELEMENT_THEORY":"SGP4","BSTAR":"0.00016893000000","NORAD_CAT_ID":"48655","INCLINATION":"53.0567","FILE":"3292788","LAUNCH_DATE":"2021-05-26","MEAN_MOTION_DOT":"0.00002236","TIME_SYSTEM":"UTC","REF_FRAME":"TEME","MEAN_MOTION_DDOT":"0.0000000000000","RA_OF_ASC_NODE":"345.5492","MEAN_ANOMALY":"288.2432","REV_AT_EPOCH":"3946","COUNTRY_CODE":"US","TLE_LINE1":"1 48655U 21044T   22036.33602413  .00002236  00000-0  16893-3 0  9997","RCS_SIZE":"LARGE","APOAPSIS":"548.211","ARG_OF_PERICENTER":"71.8717","SEMIMAJOR_AXIS":"6925.328","OBJECT_NAME":"STARLINK-2657","TLE_LINE2":"2 48655  53.0567 345.5492 0001469  71.8717 288.2432 15.06406637 39468","ECCENTRICITY":"0.00014690","SITE":"AFETR","CENTER_NAME":"EARTH","EPHEMERIS_TYPE":"0","PERIOD":"95.592"},{"COUNTRY_CODE":"US","REV_AT_EPOCH":"3862","RCS_SIZE":"LARGE","TLE_LINE1":"1 48656U 21044U   22036.33233991 -.00000401  00000-0 -80460-5 0  9996","TIME_SYSTEM":"UTC","MEAN_ANOMALY":"289.5592","RA_OF_ASC_NODE":"345.5572","REF_FRAME":"TEME","MEAN_MOTION_DDOT":"0.0000000000000","ECCENTRICITY":"0.00016090","TLE_LINE2":"2 48656  53.0562 345.5572 0001609  70.5571 289.5592 15.06408479 38627","EPHEMERIS_TYPE":"0","PERIOD":"95.592","SITE":"AFETR","CENTER_NAME":"EARTH","ARG_OF_PERICENTER":"70.5571","SEMIMAJOR_AXIS":"6925.323","APOAPSIS":"548.302","OBJECT_NAME":"STARLINK-2701","MEAN_MOTION":"15.06408479","PERIAPSIS":"546.073","ELEMENT_SET_NO":"999","DECAY_DATE":null,"OBJECT_TYPE":"PAYLOAD","OBJECT_ID":"2021-044U","FILE":"3292709","INCLINATION":"53.0562","NORAD_CAT_ID":"48656","MEAN_MOTION_DOT":"-0.00000401","LAUNCH_DATE":"2021-05-26","EPOCH":"2022-02-05T07:58:34.168224","GP_ID":"195369218","BSTAR":"-0.00000804600000","MEAN_ELEMENT_THEORY":"SGP4","CLASSIFICATION_TYPE":"U"},{"NORAD_CAT_ID":"48657","FILE":"3292709","INCLINATION":"53.0562","LAUNCH_DATE":"2021-05-26","MEAN_MOTION_DOT":"0.00001708","GP_ID":"195369468","EPOCH":"2022-02-05T07:53:15.232992","CLASSIFICATION_TYPE":"U","MEAN_ELEMENT_THEORY":"SGP4","BSTAR":"0.00013348000000","PERIAPSIS":"545.977","MEAN_MOTION":"15.06417016","ELEMENT_SET_NO":"999","OBJECT_ID":"2021-044V","OBJECT_TYPE":"PAYLOAD","DECAY_DATE":null,"TLE_LINE2":"2 48657  53.0562 345.5754 0001710  70.8208 289.2965 15.06417016 38621","ECCENTRICITY":"0.00017100","CENTER_NAME":"EARTH","SITE":"AFETR","EPHEMERIS_TYPE":"0","PERIOD":"95.591","APOAPSIS":"548.346","SEMIMAJOR_AXIS":"6925.296","ARG_OF_PERICENTER":"70.8208","OBJECT_NAME":"STARLINK-2734","REV_AT_EPOCH":"3862","COUNTRY_CODE":"US","TLE_LINE1":"1 48657U 21044V   22036.32864853  .00001708  00000-0  13348-3 0  9991","RCS_SIZE":"LARGE","TIME_SYSTEM":"UTC","REF_FRAME":"TEME","MEAN_MOTION_DDOT":"0.0000000000000","RA_OF_ASC_NODE":"345.5754","MEAN_ANOMALY":"289.2965"},{"PERIAPSIS":"545.982","MEAN_MOTION":"15.06396598","ELEMENT_SET_NO":"999","OBJECT_TYPE":"PAYLOAD","OBJECT_ID":"2021-044W","DECAY_DATE":null,"NORAD_CAT_ID":"48658","FILE":"3292765","INCLINATION":"53.0547","LAUNCH_DATE":"2021-05-26","MEAN_MOTION_DOT":"-0.00000063","GP_ID":"195373692","EPOCH":"2022-02-05T14:10:06.856032","CLASSIFICATION_TYPE":"U","MEAN_ELEMENT_THEORY":"SGP4","BSTAR":"0.00001466800000","REV_AT_EPOCH":"3956","COUNTRY_CODE":"US","TLE_LINE1":"1 48658U 21044W   22036.59035713 -.00000063  00000-0  14668-4 0  9997","RCS_SIZE":"LARGE","TIME_SYSTEM":"UTC","MEAN_MOTION_DDOT":"0.0000000000000","REF_FRAME":"TEME","RA_OF_ASC_NODE":"344.4136","MEAN_ANOMALY":"298.1365","TLE_LINE2":"2 48658  53.0547 344.4136 0001794  61.9805 298.1365 15.06396598 39561","ECCENTRICITY":"0.00017940","SITE":"AFETR","CENTER_NAME":"EARTH","PERIOD":"95.592","EPHEMERIS_TYPE":"0","APOAPSIS":"548.466","SEMIMAJOR_AXIS":"6925.359","ARG_OF_PERICENTER":"61.9805","OBJECT_NAME":"STARLINK-2647"},{"RCS_SIZE":"LARGE","TLE_LINE1":"1 48659U 21044X   22036.58666434  .00000066  00000-0  23326-4 0  9990","COUNTRY_CODE":"US","REV_AT_EPOCH":"3950","RA_OF_ASC_NODE":"344.4291","MEAN_ANOMALY":"300.6888","REF_FRAME":"TEME","MEAN_MOTION_DDOT":"0.0000000000000","TIME_SYSTEM":"UTC","PERIOD":"95.592","EPHEMERIS_TYPE":"0","CENTER_NAME":"EARTH","SITE":"AFETR","TLE_LINE2":"2 48659  53.0566 344.4291 0002066  59.4305 300.6888 15.06407518 39503","ECCENTRICITY":"0.00020660","OBJECT_NAME":"STARLINK-2717","APOAPSIS":"548.621","SEMIMAJOR_AXIS":"6925.326","ARG_OF_PERICENTER":"59.4305","ELEMENT_SET_NO":"999","MEAN_MOTION":"15.06407518","PERIAPSIS":"545.760","OBJECT_TYPE":"PAYLOAD","OBJECT_ID":"2021-044X","DECAY_DATE":null,"MEAN_MOTION_DOT":"0.00000066","LAUNCH_DATE":"2021-05-26","FILE":"3292765","INCLINATION":"53.0566","NORAD_CAT_ID":"48659","MEAN_ELEMENT_THEORY":"SGP4","BSTAR":"0.00002332600000","CLASSIFICATION_TYPE":"U","GP_ID":"195373190","EPOCH":"2022-02-05T14:04:47.798976"},{"CLASSIFICATION_TYPE":"U","BSTAR":"-0.00031651000000","MEAN_ELEMENT_THEORY":"SGP4","EPOCH":"2022-02-05T13:59:29.967072","GP_ID":"195373701","LAUNCH_DATE":"2021-05-26","MEAN_MOTION_DOT":"-0.00004992","NORAD_CAT_ID":"48660","FILE":"3292765","INCLINATION":"53.0559","DECAY_DATE":null,"OBJECT_ID":"2021-044Y","OBJECT_TYPE":"PAYLOAD","ELEMENT_SET_NO":"999","PERIAPSIS":"545.995","MEAN_MOTION":"15.06393678","OBJECT_NAME":"STARLINK-2688","ARG_OF_PERICENTER":"70.3775","SEMIMAJOR_AXIS":"6925.368","APOAPSIS":"548.471","SITE":"AFETR","CENTER_NAME":"EARTH","EPHEMERIS_TYPE":"0","PERIOD":"95.593","ECCENTRICITY":"0.00017880","TLE_LINE2":"2 48660  53.0559 344.4370 0001788  70.3775 289.7407 15.06393678 39503","REF_FRAME":"TEME","MEAN_MOTION_DDOT":"0.0000000000000","MEAN_ANOMALY":"289.7407","RA_OF_ASC_NODE":"344.4370","TIME_SYSTEM":"UTC","TLE_LINE1":"1 48660U 21044Y   22036.58298573 -.00004992  00000-0 -31651-3 0  9990","RCS_SIZE":"LARGE","REV_AT_EPOCH":"3950","COUNTRY_CODE":"US"},{"TLE_LINE1":"1 48661U 21044Z   22036.51756680 -.00000632  00000-0 -23534-4 0  9991","RCS_SIZE":"LARGE","REV_AT_EPOCH":"3969","COUNTRY_CODE":"US","REF_FRAME":"TEME","MEAN_MOTION_DDOT":"0.0000000000000","RA_OF_ASC_NODE":"334.7246","MEAN_ANOMALY":"316.2921","TIME_SYSTEM":"UTC","SITE":"AFETR","CENTER_NAME":"EARTH","PERIOD":"95.593","EPHEMERIS_TYPE":"0","TLE_LINE2":"2 48661  53.0574 334.7246 0001704  43.8203 316.2921 15.06389715 39698","ECCENTRICITY":"0.00017040","OBJECT_NAME":"STARLINK-2708","APOAPSIS":"548.425","SEMIMAJOR_AXIS":"6925.380","ARG_OF_PERICENTER":"43.8203","ELEMENT_SET_NO":"999","PERIAPSIS":"546.065","MEAN_MOTION":"15.06389715","OBJECT_ID":"2021-044Z","OBJECT_TYPE":"PAYLOAD","DECAY_DATE":null,"LAUNCH_DATE":"2021-05-26","MEAN_MOTION_DOT":"-0.00000632","NORAD_CAT_ID":"48661","INCLINATION":"53.0574","FILE":"3292774","CLASSIFICATION_TYPE":"U","MEAN_ELEMENT_THEORY":"SGP4","BSTAR":"-0.00002353400000","GP_ID":"195373723","EPOCH":"2022-02-05T12:25:17.771520"},{"GP_ID":"195370720","EPOCH":"2022-02-05T12:19:58.726560","MEAN_ELEMENT_THEORY":"SGP4","BSTAR":"0.00025103000000","CLASSIFICATION_TYPE":"U","INCLINATION":"53.0550","FILE":"3292709","NORAD_CAT_ID":"48662","MEAN_MOTION_DOT":"0.00003460","LAUNCH_DATE":"2021-05-26","OBJECT_TYPE":"PAYLOAD","OBJECT_ID":"2021-044AA","DECAY_DATE":null,"MEAN_MOTION":"15.06407497","PERIAPSIS":"546.073","ELEMENT_SET_NO":"999","APOAPSIS":"548.308","SEMIMAJOR_AXIS":"6925.326","ARG_OF_PERICENTER":"67.8546","OBJECT_NAME":"STARLINK-2726","TLE_LINE2":"2 48662  53.0550 334.7520 0001614  67.8546 292.2614 15.06407497 38794","ECCENTRICITY":"0.00016140","PERIOD":"95.592","EPHEMERIS_TYPE":"0","SITE":"AFETR","CENTER_NAME":"EARTH","TIME_SYSTEM":"UTC","RA_OF_ASC_NODE":"334.7520","MEAN_ANOMALY":"292.2614","REF_FRAME":"TEME","MEAN_MOTION_DDOT":"0.0000000000000","COUNTRY_CODE":"US","REV_AT_EPOCH":"3879","RCS_SIZE":"LARGE","TLE_LINE1":"1 48662U 21044AA  22036.51387415  .00003460  00000-0  25103-3 0  9991"},{"DECAY_DATE":null,"OBJECT_TYPE":"PAYLOAD","OBJECT_ID":"2021-044AB","PERIAPSIS":"546.081","MEAN_MOTION":"15.06400201","ELEMENT_SET_NO":"999","EPOCH":"2022-02-05T18:36:49.710240","GP_ID":"195373235","CLASSIFICATION_TYPE":"U","BSTAR":"-0.00027354000000","MEAN_ELEMENT_THEORY":"SGP4","NORAD_CAT_ID":"48663","INCLINATION":"53.0560","FILE":"3292767","LAUNCH_DATE":"2021-05-26","MEAN_MOTION_DOT":"-0.00004354","TIME_SYSTEM":"UTC","MEAN_MOTION_DDOT":"0.0000000000000","REF_FRAME":"TEME","MEAN_ANOMALY":"292.2506","RA_OF_ASC_NODE":"333.5633","REV_AT_EPOCH":"3967","COUNTRY_CODE":"US","TLE_LINE1":"1 48663U 21044AB  22036.77557535 -.00004354  00000-0 -27354-3 0  9997","RCS_SIZE":"LARGE","SEMIMAJOR_AXIS":"6925.348","ARG_OF_PERICENTER":"67.8656","APOAPSIS":"548.345","OBJECT_NAME":"STARLINK-2667","ECCENTRICITY":"0.00016350","TLE_LINE2":"2 48663  53.0560 333.5633 0001635  67.8656 292.2506 15.06400201 39677","CENTER_NAME":"EARTH","SITE":"AFETR","PERIOD":"95.592","EPHEMERIS_TYPE":"0"},{"PERIAPSIS":"545.987","MEAN_MOTION":"15.06395460","ELEMENT_SET_NO":"999","DECAY_DATE":null,"OBJECT_TYPE":"PAYLOAD","OBJECT_ID":"2021-044AC","NORAD_CAT_ID":"48664","FILE":"3292767","INCLINATION":"53.0569","LAUNCH_DATE":"2021-05-26","MEAN_MOTION_DOT":"-0.00004631","EPOCH":"2022-02-05T20:07:03.505728","GP_ID":"195373731","CLASSIFICATION_TYPE":"U","BSTAR":"-0.00029225000000","MEAN_ELEMENT_THEORY":"SGP4","REV_AT_EPOCH":"3974","COUNTRY_CODE":"US","TLE_LINE1":"1 48664U 21044AC  22036.83823502 -.00004631  00000-0 -29225-3 0  9992","RCS_SIZE":"LARGE","TIME_SYSTEM":"UTC","REF_FRAME":"TEME","MEAN_MOTION_DDOT":"0.0000000000000","MEAN_ANOMALY":"294.6503","RA_OF_ASC_NODE":"333.2955","ECCENTRICITY":"0.00017910","TLE_LINE2":"2 48664  53.0569 333.2955 0001791  65.4672 294.6503 15.06395460 39747","SITE":"AFETR","CENTER_NAME":"EARTH","EPHEMERIS_TYPE":"0","PERIOD":"95.592","ARG_OF_PERICENTER":"65.4672","SEMIMAJOR_AXIS":"6925.362","APOAPSIS":"548.468","OBJECT_NAME":"STARLINK-2709"}];
